# From MPC106342
C/1995 O1 (Hale-Bopp),e,89.2191,282.8767,130.4234,177.2937,0.0004175,0.99496966,0.0000,03/29.6860/1997,2000,g -2.0,4.0
# From NK 1615
P/1996 R2 (Lagerkvist),e,2.6009,40.0102,333.3683,3.774738,0.1343921,0.31449737,161.3355,05/28.0/2022,2000,g 11.5,4.0
# From MPC 75703
P/1998 VS24 (LINEAR),e,5.0266,159.0404,244.6041,4.526261,0.1023516,0.24289390,162.7125,05/28.0/2022,2000,g 13.0,2.0
# From NK 731
P/1999 RO28 (LONEOS),e,7.5666,137.8806,231.2796,3.426584,0.1553861,0.67247542,165.6884,05/28.0/2022,2000,g 20.0,2.0
# From MPC 75704
P/1999 XN120 (Catalina),e,5.0297,285.2962,161.7198,4.179074,0.1153676,0.21028553,209.3636,05/28.0/2022,2000,g 13.5,2.0
# From NK 744
P/2000 R2 (LINEAR),e,11.6874,160.2853,176.5757,3.467383,0.1526516,0.53153618,164.1364,05/28.0/2022,2000,g 18.0,4.0
# From MPC 43019
P/2001 H5 (NEAT),e,8.3670,328.6841,224.7778,6.096487,0.0654764,0.59821795,158.2261,05/28.0/2022,2000,g 12.0,4.0
# From MPC 75704
P/2001 Q6 (NEAT),e,56.9115,22.1812,42.9317,7.957088,0.0439110,0.82324075,331.8321,05/28.0/2022,2000,g 13.5,4.0
# From MPC 47727
P/2002 EJ57 (LINEAR),e,4.9768,330.3176,167.3097,6.465579,0.0599505,0.59228494,86.3632,05/28.0/2022,2000,g 12.5,4.0
# From MPC109588
P/2002 T6 (NEAT-LINEAR),e,10.8475,206.1043,219.6144,7.714002,0.0460028,0.56185645,323.9090,05/28.0/2022,2000,g 10.5,4.0
# From MPC 75007
C/2002 VQ94 (LINEAR),e,70.6704,35.1185,100.0303,184.3531,0.0003938,0.96302893,2.3481,05/28.0/2022,2000,g  9.5,2.0
# From MPC 50354
P/2003 F2 (NEAT),e,11.6093,359.0029,192.2501,6.502865,0.0594356,0.54161815,55.1307,05/28.0/2022,2000,g 16.5,2.0
# From MPC 50139
P/2003 QX29 (NEAT),e,11.3919,264.5309,37.6185,8.019371,0.0434004,0.47275056,309.3874,05/28.0/2022,2000,g  8.5,4.0
# From MPC105235
P/2003 T12 (SOHO),e,11.0224,174.5855,219.7449,2.585644,0.2370561,0.77002991,178.0064,05/28.0/2022,2000,g 17.0,4.0
# From MPC 82312
P/2004 A1 (LONEOS),e,10.5517,124.8556,21.1424,7.968190,0.0438192,0.30973183,285.6424,05/28.0/2022,2000,g  6.5,4.0
# From MPC 54558
P/2004 DO29 (Spacewatch-LINEAR),e,14.5320,147.3739,40.5606,7.291989,0.0500536,0.44114738,323.0569,05/28.0/2022,2000,g 13.5,2.0
# From MPC 54823
P/2004 FY140 (LINEAR),e,2.1348,326.7728,242.2112,4.905778,0.0907073,0.16790127,227.2265,05/28.0/2022,2000,g 12.5,2.0
# From MPC 53304
P/2004 R3 (LINEAR-NEAT),e,12.7822,305.3525,37.7624,4.769440,0.0946244,0.25639910,23.5358,05/28.0/2022,2000,g 14.5,4.0
# From MPC 55521
P/2004 V3 (Siding Spring),e,50.4438,356.1302,322.4469,7.133437,0.0517316,0.44610621,331.8687,05/28.0/2022,2000,g 11.5,4.0
# From MPC 75705
P/2004 V5 (LINEAR-Hill),e,19.3409,47.7883,87.6027,7.986117,0.0436717,0.44426094,276.7817,05/28.0/2022,2000,g  8.0,4.0
# From MPC 54164
P/2005 E1 (Tubbiolo),e,4.2635,335.5719,193.9372,7.046906,0.0526873,0.37536061,334.2504,05/28.0/2022,2000,g 10.0,4.0
# From MPC 54823
P/2005 GF8 (LONEOS),e,1.1798,314.2745,284.5881,5.790522,0.0707339,0.51677830,68.9877,05/28.0/2022,2000,g 11.5,4.0
# From MPC 79019
P/2005 J1 (McNaught),e,31.7462,268.8249,338.9454,3.571421,0.1460301,0.56917695,193.3683,05/28.0/2022,2000,g 16.5,4.0
# From MPC 74246
P/2005 L1 (McNaught),e,7.7365,138.2486,149.8384,3.982971,0.1239919,0.21094476,25.4974,05/28.0/2022,2000,g  9.5,4.0
# From MPC 75706
P/2005 S2 (Skiff),e,3.1356,161.2226,229.3099,8.008587,0.0434881,0.19825716,254.5516,05/28.0/2022,2000,g  7.5,4.0
# From MPC 75706
P/2005 SB216 (LONEOS),e,24.1078,1.1349,83.2758,7.141642,0.0516425,0.46434020,291.3550,05/28.0/2022,2000,g 12.0,2.0
# From MPC 73461
P/2005 T3 (Read),e,6.2236,27.6838,6.6716,7.587562,0.0471575,0.17513705,287.3813,05/28.0/2022,2000,g  9.0,4.0
# From MPC 73461
P/2005 T4 (SWAN),e,160.2554,25.8786,41.7902,9.360240,0.0344170,0.92971259,209.2031,05/28.0/2022,2000,g 15.0,4.0
# From MPC 75706
P/2005 T5 (Broughton),e,21.3742,56.9996,304.6522,7.283878,0.0501372,0.55263356,304.1904,05/28.0/2022,2000,g 11.0,4.0
# From MPC 75706
P/2005 Y2 (McNaught),e,19.0469,94.1996,193.7258,6.345987,0.0616532,0.46843734,36.2196,05/28.0/2022,2000,g  9.0,4.0
# From MPC 56954
P/2006 F4 (Spacewatch),e,12.4506,183.8321,30.6372,3.513549,0.1496528,0.34225400,153.9843,05/28.0/2022,2000,g 15.0,4.0
# From MPC 75707
P/2006 HR30 (Siding Spring),e,31.8468,309.8625,117.3389,7.809910,0.0451580,0.84286553,254.9258,05/28.0/2022,2000,g 11.0,4.0
# From MPC 75707
P/2007 A2 (Christensen),e,26.4869,300.9118,186.7053,6.334234,0.0618248,0.55817849,348.5579,05/28.0/2022,2000,g 13.5,4.0
# From MPC 75707
P/2007 C2 (Catalina),e,8.6120,275.3479,180.1525,6.996354,0.0532594,0.47179668,285.6577,05/28.0/2022,2000,g 10.0,4.0
# From MPC 84315
C/2007 D1 (LINEAR),e,41.5015,171.2358,339.8605,1239,0.0000226,0.99289679,0.0000,06/07.1480/2007,2000,g  3.5,4.0
# From MPC 82314
P/2007 K2 (Gibbs),e,7.6279,188.6353,347.3770,7.272277,0.0502572,0.68297815,275.6825,05/28.0/2022,2000,g 14.0,4.0
# From MPC 60925
P/2007 Q2 (Gilmore),e,10.2027,172.1532,162.8277,5.655808,0.0732761,0.67009950,40.0824,05/28.0/2022,2000,g 16.0,4.0
# From MPC 73462
P/2007 S1 (Zhao),e,5.9624,141.3662,245.2581,3.823551,0.1318268,0.33974467,342.5895,05/28.0/2022,2000,g 13.0,4.0
# From MPC 61994
P/2007 T2 (Kowalski),e,9.7522,3.3776,359.6543,3.046121,0.1853887,0.78563864,260.1537,05/28.0/2022,2000,g 18.5,4.0
# From MPC 75709
P/2008 L2 (Hill),e,25.8679,218.0167,141.2540,6.027529,0.0666032,0.61340104,336.8185,05/28.0/2022,2000,g 12.5,4.0
# From MPC 64114
P/2008 O3 (Boattini),e,32.3161,47.5688,341.1449,8.217158,0.0418429,0.69616210,213.8724,05/28.0/2022,2000,g 13.0,4.0
# From MPC 75710
P/2008 Y3 (McNaught),e,38.7755,262.8385,238.0859,8.047851,0.0431702,0.44563045,211.9898,05/28.0/2022,2000,g  8.5,4.0
# From MPC 75710
P/2009 B1 (Boattini),e,22.2294,297.0798,128.8843,6.737604,0.0563567,0.63538227,275.7413,05/28.0/2022,2000,g 13.0,4.0
# From MPC 66466
C/2009 G1 (STEREO),e,108.6005,120.5118,175.4875,458.6512,0.0001003,0.99751597,0.0000,04/17.6390/2009,2000,g  9.0,4.0
# From MPC 75710
P/2009 O3 (Hill),e,16.2870,183.6868,154.4745,7.767316,0.0455300,0.68787102,216.1969,05/28.0/2022,2000,g 12.5,4.0
# From MPC 68902
P/2009 Q5 (McNaught),e,40.9887,160.2801,209.0766,7.431615,0.0486496,0.60968021,225.8167,05/28.0/2022,2000,g 10.0,4.0
# From MPC112389
P/2009 T2 (La Sagra),e,27.5955,215.8791,216.3340,7.720225,0.0459472,0.76610435,208.2867,05/28.0/2022,2000,g 14.0,4.0
# From MPC105235
P/2009 WX51 (Catalina),e,9.5939,31.5860,118.2414,3.082730,0.1820962,0.73962719,101.5958,05/28.0/2022,2000,g 19.0,2.0
# From MPC 74247
P/2009 Y2 (Kowalski),e,29.9524,262.0356,172.1293,6.550214,0.0587924,0.63653419,263.0067,05/28.0/2022,2000,g 13.0,4.0
# From MPC 75711
P/2010 A3 (Hill),e,14.8181,63.6737,42.2599,6.084282,0.0656735,0.73364536,293.0759,05/28.0/2022,2000,g 14.0,4.0
# From MPC 75008
P/2010 C1 (Scotti),e,9.1274,141.8821,3.4665,7.104230,0.0520509,0.25982722,238.8094,05/28.0/2022,2000,g  9.5,4.0
# From MPC 75008
P/2010 D2 (WISE),e,57.0923,319.8864,119.9549,6.720092,0.0565772,0.45129764,254.2354,05/28.0/2022,2000,g 16.0,4.0
# From MPC 75009
P/2010 E2 (Jarnac),e,15.3855,177.8202,8.3238,8.640193,0.0388078,0.71947136,172.5237,05/28.0/2022,2000,g 14.0,4.0
# From MPC 72851
P/2010 H2 (Vales),e,14.2776,64.1877,128.0290,3.832459,0.1313675,0.19637933,226.3390,05/28.0/2022,2000,g  6.0,4.0
# From MPC 70361
P/2010 H3 (SOHO),e,23.0646,77.0852,26.1589,3.036542,0.1862666,0.98535469,0.0000,02/07.8965/2021,2000,g 20.0,2.0
# From MPC 73463
P/2010 H4 (Scotti),e,2.3178,44.7283,179.4003,6.597458,0.0581620,0.26638132,254.1370,05/28.0/2022,2000,g 10.5,4.0
# From MPC 74637
P/2010 H5 (Scotti),e,14.0581,24.7958,174.8877,7.168450,0.0513530,0.15259713,228.4547,05/28.0/2022,2000,g 13.0,2.0
# From MPC 98558
P/2010 J3 (McMillan),e,13.2727,106.4505,157.5923,8.978196,0.0366370,0.72598111,157.2433,05/28.0/2022,2000,g 11.0,4.0
# From MPC 84315
P/2010 JC81 (WISE),e,38.8064,30.8634,12.4232,8.106852,0.0426998,0.77766510,173.0572,05/28.0/2022,2000,g  9.0,4.0
# From MPC 74248
P/2010 T2 (PANSTARRS),e,7.8866,58.6320,352.8603,5.557430,0.0752303,0.32262969,310.3633,05/28.0/2022,2000,g 11.5,4.0
# From MPC 98558
P/2010 TO20 (LINEAR-Grauer),e,2.4788,43.2868,267.2746,5.832809,0.0699661,0.05558541,347.2954,05/28.0/2022,2000,g  9.0,4.0
# From MPC 82316
P/2010 U1 (Boattini),e,8.2183,280.6878,86.1574,6.504236,0.0594168,0.24901443,267.2330,05/28.0/2022,2000,g  9.5,4.0
# From MPEC 2022-K19
C/2010 U3 (Boattini),e,55.5471,43.0006,88.0442,2355,0.0000086,0.99641581,0.0000,02/25.2450/2019,2000,g  1.0,4.0
# From MPC 79021
P/2010 UH55 (Spacewatch),e,8.0386,232.9115,225.1475,6.654573,0.0574148,0.56352963,233.7024,05/28.0/2022,2000,g 11.0,4.0
# From MPC 75009
P/2010 WK (LINEAR),e,11.4016,11.3340,40.9687,5.762420,0.0712519,0.69036168,304.0308,05/28.0/2022,2000,g 14.5,2.0
# From MPC 84021
P/2011 C2 (Gibbs),e,10.8866,12.1211,160.6319,7.412744,0.0488355,0.26902162,186.0847,05/28.0/2022,2000,g  9.0,4.0
# From MPC 79866
P/2011 FR143 (Lemmon),e,15.9760,190.9493,349.9854,6.862195,0.0548289,0.45052069,225.5635,05/28.0/2022,2000,g 14.0,2.0
# From MPC 82317
P/2011 JB15 (Spacewatch-Boattini),e,19.1475,153.5816,111.0722,7.363362,0.0493276,0.31647757,186.5345,05/28.0/2022,2000,g  9.0,4.0
# From MPC 87913
P/2011 N1 (ASH),e,35.7533,77.5814,330.3641,6.246082,0.0631382,0.54475346,231.0073,05/28.0/2022,2000,g 11.5,4.0
# From MPC 75714
P/2011 NO1 (Elenin),e,15.2454,295.8224,263.7267,5.529423,0.0758026,0.77454218,314.6634,05/28.0/2022,2000,g 15.0,4.0
# From MPEC 2022-ED3
P/2011 P1 (McNaught),e,5.6611,4.2316,349.0935,7.460431,0.0483680,0.32761301,208.9645,05/28.0/2022,2000,g  9.0,4.0
# From MPEC 2022-HC2
P/2011 S1 (Gibbs),e,2.6866,218.8414,192.4468,8.583003,0.0391963,0.20125478,111.5062,05/28.0/2022,2000,g  8.0,4.0
# From MPC 79022
P/2011 UA134 (Spacewatch-PANSTARRS),e,10.4405,40.4000,32.4009,5.609107,0.0741931,0.62961966,286.0861,05/28.0/2022,2000,g 17.5,4.0
# From MPC 77406
P/2011 V1 (Boattini),e,7.3749,46.7952,269.3589,3.856654,0.1301332,0.55031045,173.5476,05/28.0/2022,2000,g 15.5,4.0
# From MPC 82718
P/2011 W1 (PANSTARRS),e,3.7186,161.7851,282.7579,4.664293,0.0978420,0.28777784,10.6891,05/28.0/2022,2000,g 11.5,4.0
# From MPC 79342
